[{"OBJECT_NAME":"STARLINK-4149","OBJECT_ID":"2022-086BA","EPOCH":"2026-03-09T12:32:56.036256","MEAN_MOTION":15.08839836,"ECCENTRICITY":0.00010026,"INCLINATION":53.2177,"RA_OF_ASC_NODE":184.8733,"ARG_OF_PERICENTER":104.4351,"MEAN_ANOMALY":255.6752,"EPHEMERIS_TYPE":0,"CLASSIFICATION_TYPE":"U","NORAD_CAT_ID":53290,"ELEMENT_SET_NO":999,"REV_AT_EPOCH":20116,"BSTAR":-4.362973e-6,"MEAN_MOTION_DOT":-3.57e-6,"MEAN_MOTION_DDOT":0},{"OBJECT_NAME":"NEONSAT-1A","OBJECT_ID":"2026-019A","EPOCH":"2026-03-09T21:53:31.879392","MEAN_MOTION":15.0780294,"ECCENTRICITY":0.00137261,"INCLINATION":97.411,"RA_OF_ASC_NODE":192.4819,"ARG_OF_PERICENTER":167.4713,"MEAN_ANOMALY":192.686,"EPHEMERIS_TYPE":0,"CLASSIFICATION_TYPE":"U","NORAD_CAT_ID":67614,"ELEMENT_SET_NO":999,"REV_AT_EPOCH":585,"BSTAR":0.00027109929,"MEAN_MOTION_DOT":4.096e-5,"MEAN_MOTION_DDOT":0}]
